STARLINK-31471          
1 59568U 24076E   26068.16231798 -.00001762  00000+0 -54536-4 0  9995
2 59568  43.0065  11.8378 0001016 285.9523  74.1216 15.27566798106333
FLOCK 4G-30             
1 62679U 25009BY  26068.70871344  .00013147  00000+0  49475-3 0  9999
2 62679  97.3969 150.6012 0003795 342.4152  17.6955 15.27244548121341
